{"type": "FeatureCollection", "features": [ {"type": "Feature", "properties": {"norad_id": 36278, "name": "FENGYUN 1C DEB", "group": "fengyun-1c-debris", "lat": -37.800167329971224, "lon": 91.68135279911878, "alt_km": 804.2517064063804, "timestamp": "2025-12-26T04:40:06.075128+00:00", "meta": {"OBJECT_NAME": "FENGYUN 1C DEB", "OBJECT_ID": "1999-025DXF", "EPOCH": "2025-12-25T12:23:20.936256", "MEAN_MOTION": 14.17404058, "ECCENTRICITY": 0.0060493, "INCLINATION": 99.1253, "RA_OF_ASC_NODE": 278.1472, "ARG_OF_PERICENTER": 254.2677, "MEAN_ANOMALY": 105.1819, "EPHEMERIS_TYPE": 0, "CLASSIFICATION_TYPE": "U", "NORAD_CAT_ID": 36278, "ELEMENT_SET_NO": 999, "REV_AT_EPOCH": 93657, "BSTAR": 0.0004649, "MEAN_MOTION_DOT": 9.11e-06, "MEAN_MOTION_DDOT": 0}, "tle": {"line1": "1 36278U 99025DXF 25359.51621454  .00000911  00000+0  46490-3 0  9999", "line2": "2 36278  99.1253 278.1472 0060493 254.2677 105.1819 14.17404058936572"}}, "geometry": {"type": "Point", "coordinates": [91.68135279911878, -37.800167329971224]}}, {"type": "Feature", "properties": {"norad_id": 36279, "name": "FENGYUN 1C DEB", "group": "fengyun-1c-debris", "lat": 64.43113450837832, "lon": 176.00465004687365, "alt_km": 842.0825732528965, "timestamp": "2025-12-26T04:40:06.075138+00:00", "meta": {"OBJECT_NAME": "FENGYUN 1C DEB", "OBJECT_ID": "1999-025DXG", "EPOCH": "2025-12-24T04:36:30.849408", "MEAN_MOTION": 14.1473428, "ECCENTRICITY": 0.00624156, "INCLINATION": 98.5623, "RA_OF_ASC_NODE": 335.7298, "ARG_OF_PERICENTER": 22.9202, "MEAN_ANOMALY": 337.4736, "EPHEMERIS_TYPE": 0, "CLASSIFICATION_TYPE": "U", "NORAD_CAT_ID": 36279, "ELEMENT_SET_NO": 999, "REV_AT_EPOCH": 89201, "BSTAR": 0.00014307987, "MEAN_MOTION_DOT": 2.39e-06, "MEAN_MOTION_DDOT": 0}, "tle": {"line1": "1 36279U 99025DXG 25358.19202372  .00000239  00000+0  14308-3 0  9993", "line2": "2 36279  98.5623 335.7298 0062415  22.9202 337.4736 14.14734280892011"}}, "geometry": {"type": "Point", "coordinates": [176.00465004687365, 64.43113450837832]}}, {"type": "Feature", "properties": {"norad_id": 36280, "name": "FENGYUN 1C DEB", "group": "fengyun-1c-debris", "lat": -81.20363956049323, "lon": 114.48125976481981, "alt_km": 887.6148044994425, "timestamp": "2025-12-26T04:40:06.075149+00:00", "meta": {"OBJECT_NAME": "FENGYUN 1C DEB", "OBJECT_ID": "1999-025DXH", "EPOCH": "2025-12-24T22:59:16.157760", "MEAN_MOTION": 14.09776084, "ECCENTRICITY": 0.00626128, "INCLINATION": 98.7659, "RA_OF_ASC_NODE": 27.633, "ARG_OF_PERICENTER": 30.8932, "MEAN_ANOMALY": 87.4685, "EPHEMERIS_TYPE": 0, "CLASSIFICATION_TYPE": "U", "NORAD_CAT_ID": 36280, "ELEMENT_SET_NO": 999, "REV_AT_EPOCH": 86526, "BSTAR": 0.00090348933, "MEAN_MOTION_DOT": 1.574e-05, "MEAN_MOTION_DDOT": 0}, "tle": {"line1": "1 36280U 99025DXH 25358.95782590  .00001574  00000+0  90349-3 0  9996", "line2": "2 36280  98.7659  27.6330 0062612  30.8932  87.4685 14.09776084865269"}}, "geometry": {"type": "Point", "coordinates": [114.48125976481981, -81.20363956049323]}}, {"type": "Feature", "properties": {"norad_id": 36281, "name": "FENGYUN 1C DEB", "group": "fengyun-1c-debris", "lat": -23.696037156332135, "lon": -74.45862436934485, "alt_km": 1071.7507925265745, "timestamp": "2025-12-26T04:40:06.075159+00:00", "meta": {"OBJECT_NAME": "FENGYUN 1C DEB", "OBJECT_ID": "1999-025DXJ", "EPOCH": "2025-12-20T00:30:26.383680", "MEAN_MOTION": 13.60294135, "ECCENTRICITY": 0.02913999, "INCLINATION": 99.2595, "RA_OF_ASC_NODE": 275.5857, "ARG_OF_PERICENTER": 92.0584, "MEAN_ANOMALY": 271.3952, "EPHEMERIS_TYPE": 0, "CLASSIFICATION_TYPE": "U", "NORAD_CAT_ID": 36281, "ELEMENT_SET_NO": 999, "REV_AT_EPOCH": 84616, "BSTAR": 0.00281607, "MEAN_MOTION_DOT": 2.757e-05, "MEAN_MOTION_DDOT": 0}, "tle": {"line1": "1 36281U 99025DXJ 25354.02113870  .00002757  00000+0  28161-2 0  9996", "line2": "2 36281  99.2595 275.5857 0291399  92.0584 271.3952 13.60294135846169"}}, "geometry": {"type": "Point", "coordinates": [-74.45862436934485, -23.696037156332135]}}, {"type": "Feature", "properties": {"norad_id": 36283, "name": "FENGYUN 1C DEB", "group": "fengyun-1c-debris", "lat": 48.01097092378549, "lon": -42.36400406594488, "alt_km": 506.34386804249607, "timestamp": "2025-12-26T04:40:06.075169+00:00", "meta": {"OBJECT_NAME": "FENGYUN 1C DEB", "OBJECT_ID": "1999-025DXL", "EPOCH": "2025-12-24T15:48:14.147712", "MEAN_MOTION": 15.06937596, "ECCENTRICITY": 0.00659896, "INCLINATION": 99.4228, "RA_OF_ASC_NODE": 326.3914, "ARG_OF_PERICENTER": 12.9704, "MEAN_ANOMALY": 347.3196, "EPHEMERIS_TYPE": 0, "CLASSIFICATION_TYPE": "U", "NORAD_CAT_ID": 36283, "ELEMENT_SET_NO": 999, "REV_AT_EPOCH": 66845, "BSTAR": 0.0022105342, "MEAN_MOTION_DOT": 0.00034786, "MEAN_MOTION_DDOT": 0}, "tle": {"line1": "1 36283U 99025DXL 25358.65849708  .00034786  00000+0  22105-2 0  9996", "line2": "2 36283  99.4228 326.3914 0065989  12.9704 347.3196 15.06937596668459"}}, "geometry": {"type": "Point", "coordinates": [-42.36400406594488, 48.01097092378549]}}, {"type": "Feature", "properties": {"norad_id": 36644, "name": "FENGYUN 1C DEB", "group": "fengyun-1c-debris", "lat": 67.29970075067403, "lon": -22.32665923591566, "alt_km": 853.2823896975669, "timestamp": "2025-12-26T04:40:06.075179+00:00", "meta": {"OBJECT_NAME": "FENGYUN 1C DEB", "OBJECT_ID": "1999-025DXN", "EPOCH": "2025-12-20T03:15:14.582880", "MEAN_MOTION": 13.5921712, "ECCENTRICITY": 0.0285778, "INCLINATION": 98.4233, "RA_OF_ASC_NODE": 131.7114, "ARG_OF_PERICENTER": 160.4918, "MEAN_ANOMALY": 200.7431, "EPHEMERIS_TYPE": 0, "CLASSIFICATION_TYPE": "U", "NORAD_CAT_ID": 36644, "ELEMENT_SET_NO": 999, "REV_AT_EPOCH": 61668, "BSTAR": 0.0010197403, "MEAN_MOTION_DOT": 9.49e-06, "MEAN_MOTION_DDOT": 0}, "tle": {"line1": "1 36644U 99025DXN 25354.13558545  .00000949  00000+0  10197-2 0  9994", "line2": "2 36644  98.4233 131.7114 0285778 160.4918 200.7431 13.59217120616683"}}, "geometry": {"type": "Point", "coordinates": [-22.32665923591566, 67.29970075067403]}}, {"type": "Feature", "properties": {"norad_id": 36647, "name": "FENGYUN 1C DEB", "group": "fengyun-1c-debris", "lat": -81.23077474006288, "lon": -87.78077983148566, "alt_km": 764.5390216642691, "timestamp": "2025-12-26T04:40:06.075190+00:00", "meta": {"OBJECT_NAME": "FENGYUN 1C DEB", "OBJECT_ID": "1999-025DXR", "EPOCH": "2025-12-17T15:22:01.202880", "MEAN_MOTION": 13.88856712, "ECCENTRICITY": 0.02401846, "INCLINATION": 96.1202, "RA_OF_ASC_NODE": 130.6548, "ARG_OF_PERICENTER": 285.5466, "MEAN_ANOMALY": 71.9303, "EPHEMERIS_TYPE": 0, "CLASSIFICATION_TYPE": "U", "NORAD_CAT_ID": 36647, "ELEMENT_SET_NO": 999, "REV_AT_EPOCH": 30480, "BSTAR": 0.0022455743, "MEAN_MOTION_DOT": 3.394e-05, "MEAN_MOTION_DDOT": 0}, "tle": {"line1": "1 36647U 99025DXR 25351.64029170  .00003394  00000+0  22456-2 0  9995", "line2": "2 36647  96.1202 130.6548 0240184 285.5466  71.9303 13.88856712304807"}}, "geometry": {"type": "Point", "coordinates": [-87.78077983148566, -81.23077474006288]}}, {"type": "Feature", "properties": {"norad_id": 36652, "name": "FENGYUN 1C DEB", "group": "fengyun-1c-debris", "lat": -74.89324865810825, "lon": 118.23891251145065, "alt_km": 791.3423091285604, "timestamp": "2025-12-26T04:40:06.075200+00:00", "meta": {"OBJECT_NAME": "FENGYUN 1C DEB", "OBJECT_ID": "1999-025DXW", "EPOCH": "2025-12-24T10:50:21.142176", "MEAN_MOTION": 14.22897296, "ECCENTRICITY": 0.00509453, "INCLINATION": 98.9403, "RA_OF_ASC_NODE": 80.7986, "ARG_OF_PERICENTER": 318.2449, "MEAN_ANOMALY": 41.4845, "EPHEMERIS_TYPE": 0, "CLASSIFICATION_TYPE": "U", "NORAD_CAT_ID": 36652, "ELEMENT_SET_NO": 999, "REV_AT_EPOCH": 64491, "BSTAR": 0.0017394097, "MEAN_MOTION_DOT": 3.918e-05, "MEAN_MOTION_DDOT": 0}, "tle": {"line1": "1 36652U 99025DXW 25358.45163359  .00003918  00000+0  17394-2 0  9992", "line2": "2 36652  98.9403  80.7986 0050945 318.2449  41.4845 14.22897296644919"}}, "geometry": {"type": "Point", "coordinates": [118.23891251145065, -74.89324865810825]}}, {"type": "Feature", "properties": {"norad_id": 36657, "name": "FENGYUN 1C DEB", "group": "fengyun-1c-debris", "lat": 9.899248050116945, "lon": 151.39571255956596, "alt_km": 605.2132756515621, "timestamp": "2025-12-26T04:40:06.075210+00:00", "meta": {"OBJECT_NAME": "FENGYUN 1C DEB", "OBJECT_ID": "1999-025DYB", "EPOCH": "2025-12-24T16:34:37.790688", "MEAN_MOTION": 14.65600132, "ECCENTRICITY": 0.01054242, "INCLINATION": 99.4135, "RA_OF_ASC_NODE": 151.3338, "ARG_OF_PERICENTER": 30.9032, "MEAN_ANOMALY": 329.8315, "EPHEMERIS_TYPE": 0, "CLASSIFICATION_TYPE": "U", "NORAD_CAT_ID": 36657, "ELEMENT_SET_NO": 999, "REV_AT_EPOCH": 66431, "BSTAR": 0.000583973, "MEAN_MOTION_DOT": 3.376e-05, "MEAN_MOTION_DDOT": 0}, "tle": {"line1": "1 36657U 99025DYB 25358.69071517  .00003376  00000+0  58397-3 0  9994", "line2": "2 36657  99.4135 151.3338 0105424  30.9032 329.8315 14.65600132664316"}}, "geometry": {"type": "Point", "coordinates": [151.39571255956596, 9.899248050116945]}}, {"type": "Feature", "properties": {"norad_id": 36659, "name": "FENGYUN 1C DEB", "group": "fengyun-1c-debris", "lat": -1.8889073322589236, "lon": -175.92515336489657, "alt_km": 1018.9231109775264, "timestamp": "2025-12-26T04:40:06.075220+00:00", "meta": {"OBJECT_NAME": "FENGYUN 1C DEB", "OBJECT_ID": "1999-025DYD", "EPOCH": "2025-12-18T07:09:04.054176", "MEAN_MOTION": 13.87384482, "ECCENTRICITY": 0.01357919, "INCLINATION": 99.8541, "RA_OF_ASC_NODE": 356.081, "ARG_OF_PERICENTER": 60.2917, "MEAN_ANOMALY": 301.1674, "EPHEMERIS_TYPE": 0, "CLASSIFICATION_TYPE": "U", "NORAD_CAT_ID": 36659, "ELEMENT_SET_NO": 999, "REV_AT_EPOCH": 60502, "BSTAR": 0.00061832075, "MEAN_MOTION_DOT": 7.35e-06, "MEAN_MOTION_DDOT": 0}, "tle": {"line1": "1 36659U 99025DYD 25352.29796359  .00000735  00000+0  61832-3 0  9998", "line2": "2 36659  99.8541 356.0810 0135791  60.2917 301.1674 13.87384482605024"}}, "geometry": {"type": "Point", "coordinates": [-175.92515336489657, -1.8889073322589236]}}]}